{
  "type": "FeatureCollection",
  "features": [
    {
      "type": "Feature",
      "properties": {
        "norad_id": 34088,
        "name": "IRIDIUM 33 DEB",
        "group": "iridium-33-debris",
        "lat": 66.13407737095906,
        "lon": 32.981228069147456,
        "alt_km": 583.7643039344912,
        "timestamp": "2025-12-25T16:53:15.048714+00:00",
        "meta_object_name": "IRIDIUM 33 DEB",
        "meta_object_id": "1997-051CX",
        "meta_epoch": "2025-12-25T00:46:48.782784",
        "meta_mean_motion": 14.91924983,
        "meta_eccentricity": 0.0007024,
        "meta_inclination": 86.3841,
        "meta_ra_of_asc_node": 25.0724,
        "meta_arg_of_pericenter": 138.3667,
        "meta_mean_anomaly": 285.8746,
        "meta_ephemeris_type": 0,
        "meta_classification_type": "U",
        "meta_norad_cat_id": 34088,
        "meta_element_set_no": 999,
        "meta_rev_at_epoch": 88925,
        "meta_bstar": 0.0025488887,
        "meta_mean_motion_dot": 0.00025881,
        "meta_mean_motion_ddot": 0,
        "tle_line1": "1 34088U 97051CX  25359.03250906  .00025881  00000+0  25489-2 0  9997",
        "tle_line2": "2 34088  86.3841  25.0724 0007024 138.3667 285.8746 14.91924983889254"
      },
      "geometry": {
        "type": "Point",
        "coordinates": [
          32.981228069147456,
          66.13407737095906
        ]
      }
    },
    {
      "type": "Feature",
      "properties": {
        "norad_id": 34091,
        "name": "IRIDIUM 33 DEB",
        "group": "iridium-33-debris",
        "lat": 5.35469288430962,
        "lon": -119.45071324952713,
        "alt_km": 615.6946311856391,
        "timestamp": "2025-12-25T16:53:15.048724+00:00",
        "meta_object_name": "IRIDIUM 33 DEB",
        "meta_object_id": "1997-051DA",
        "meta_epoch": "2025-12-24T22:16:58.173312",
        "meta_mean_motion": 14.82700275,
        "meta_eccentricity": 0.00343495,
        "meta_inclination": 86.342,
        "meta_ra_of_asc_node": 61.2483,
        "meta_arg_of_pericenter": 249.729,
        "meta_mean_anomaly": 110.024,
        "meta_ephemeris_type": 0,
        "meta_classification_type": "U",
        "meta_norad_cat_id": 34091,
        "meta_element_set_no": 999,
        "meta_rev_at_epoch": 88047,
        "meta_bstar": 0.0051867384,
        "meta_mean_motion_dot": 0.00042498,
        "meta_mean_motion_ddot": 0,
        "tle_line1": "1 34091U 97051DA  25358.92845108  .00042498  00000+0  51867-2 0  9994",
        "tle_line2": "2 34091  86.3420  61.2483 0034349 249.7290 110.0240 14.82700275880473"
      },
      "geometry": {
        "type": "Point",
        "coordinates": [
          -119.45071324952713,
          5.35469288430962
        ]
      }
    },
    {
      "type": "Feature",
      "properties": {
        "norad_id": 34097,
        "name": "IRIDIUM 33 DEB",
        "group": "iridium-33-debris",
        "lat": 12.179617621304462,
        "lon": -3.493479698123692,
        "alt_km": 741.0872821024577,
        "timestamp": "2025-12-25T16:53:15.048735+00:00",
        "meta_object_name": "IRIDIUM 33 DEB",
        "meta_object_id": "1997-051DG",
        "meta_epoch": "2025-12-25T00:05:41.421696",
        "meta_mean_motion": 14.34875051,
        "meta_eccentricity": 0.00814136,
        "meta_inclination": 86.2004,
        "meta_ra_of_asc_node": 355.9934,
        "meta_arg_of_pericenter": 322.038,
        "meta_mean_anomaly": 37.5093,
        "meta_ephemeris_type": 0,
        "meta_classification_type": "U",
        "meta_norad_cat_id": 34097,
        "meta_element_set_no": 999,
        "meta_rev_at_epoch": 87295,
        "meta_bstar": 0.001672202,
        "meta_mean_motion_dot": 4.948e-05,
        "meta_mean_motion_ddot": 0,
        "tle_line1": "1 34097U 97051DG  25359.00395164  .00004948  00000+0  16722-2 0  9991",
        "tle_line2": "2 34097  86.2004 355.9934 0081413 322.0380  37.5093 14.34875051872954"
      },
      "geometry": {
        "type": "Point",
        "coordinates": [
          -3.493479698123692,
          12.179617621304462
        ]
      }
    },
    {
      "type": "Feature",
      "properties": {
        "norad_id": 34145,
        "name": "IRIDIUM 33 DEB",
        "group": "iridium-33-debris",
        "lat": -86.20223335073082,
        "lon": -119.54322934748508,
        "alt_km": 789.2955851523093,
        "timestamp": "2025-12-25T16:53:15.048746+00:00",
        "meta_object_name": "IRIDIUM 33 DEB",
        "meta_object_id": "1997-051DY",
        "meta_epoch": "2025-12-23T08:41:39.975936",
        "meta_mean_motion": 14.42361739,
        "meta_eccentricity": 0.00555944,
        "meta_inclination": 86.2126,
        "meta_ra_of_asc_node": 327.7951,
        "meta_arg_of_pericenter": 60.0799,
        "meta_mean_anomaly": 300.5906,
        "meta_ephemeris_type": 0,
        "meta_classification_type": "U",
        "meta_norad_cat_id": 34145,
        "meta_element_set_no": 999,
        "meta_rev_at_epoch": 87791,
        "meta_bstar": 0.0012419771,
        "meta_mean_motion_dot": 4.2e-05,
        "meta_mean_motion_ddot": 0,
        "tle_line1": "1 34145U 97051DY  25357.36226824  .00004200  00000+0  12420-2 0  9990",
        "tle_line2": "2 34145  86.2126 327.7951 0055594  60.0799 300.5906 14.42361739877912"
      },
      "geometry": {
        "type": "Point",
        "coordinates": [
          -119.54322934748508,
          -86.20223335073082
        ]
      }
    },
    {
      "type": "Feature",
      "properties": {
        "norad_id": 34146,
        "name": "IRIDIUM 33 DEB",
        "group": "iridium-33-debris",
        "lat": -43.32076184765852,
        "lon": 167.58628448018231,
        "alt_km": 722.0164155496859,
        "timestamp": "2025-12-25T16:53:15.048757+00:00",
        "meta_object_name": "IRIDIUM 33 DEB",
        "meta_object_id": "1997-051DZ",
        "meta_epoch": "2025-12-24T23:34:34.583808",
        "meta_mean_motion": 14.49125914,
        "meta_eccentricity": 0.00268759,
        "meta_inclination": 86.2842,
        "meta_ra_of_asc_node": 344.3912,
        "meta_arg_of_pericenter": 179.4306,
        "meta_mean_anomaly": 243.1645,
        "meta_ephemeris_type": 0,
        "meta_classification_type": "U",
        "meta_norad_cat_id": 34146,
        "meta_element_set_no": 999,
        "meta_rev_at_epoch": 88284,
        "meta_bstar": 0.00094318746,
        "meta_mean_motion_dot": 3.621e-05,
        "meta_mean_motion_ddot": 0,
        "tle_line1": "1 34146U 97051DZ  25358.98234472  .00003621  00000+0  94319-3 0  9992",
        "tle_line2": "2 34146  86.2842 344.3912 0026875 179.4306 243.1645 14.49125914882849"
      },
      "geometry": {
        "type": "Point",
        "coordinates": [
          167.58628448018231,
          -43.32076184765852
        ]
      }
    },
    {
      "type": "Feature",
      "properties": {
        "norad_id": 34159,
        "name": "IRIDIUM 33 DEB",
        "group": "iridium-33-debris",
        "lat": 15.288276384888936,
        "lon": -138.28733195480368,
        "alt_km": 760.1744439466092,
        "timestamp": "2025-12-25T16:53:15.048767+00:00",
        "meta_object_name": "IRIDIUM 33 DEB",
        "meta_object_id": "1997-051EN",
        "meta_epoch": "2025-12-25T02:46:00.544512",
        "meta_mean_motion": 14.38523185,
        "meta_eccentricity": 0.00262268,
        "meta_inclination": 86.3491,
        "meta_ra_of_asc_node": 42.9636,
        "meta_arg_of_pericenter": 244.0886,
        "meta_mean_anomaly": 115.7609,
        "meta_ephemeris_type": 0,
        "meta_classification_type": "U",
        "meta_norad_cat_id": 34159,
        "meta_element_set_no": 999,
        "meta_rev_at_epoch": 88137,
        "meta_bstar": 0.00039008063,
        "meta_mean_motion_dot": 1.216e-05,
        "meta_mean_motion_ddot": 0,
        "tle_line1": "1 34159U 97051EN  25359.11528408  .00001216  00000+0  39008-3 0  9999",
        "tle_line2": "2 34159  86.3491  42.9636 0026226 244.0886 115.7609 14.38523185881371"
      },
      "geometry": {
        "type": "Point",
        "coordinates": [
          -138.28733195480368,
          15.288276384888936
        ]
      }
    },
    {
      "type": "Feature",
      "properties": {
        "norad_id": 34350,
        "name": "IRIDIUM 33 DEB",
        "group": "iridium-33-debris",
        "lat": 24.77220976235128,
        "lon": 175.48272600208026,
        "alt_km": 731.5674906390004,
        "timestamp": "2025-12-25T16:53:15.048778+00:00",
        "meta_object_name": "IRIDIUM 33 DEB",
        "meta_object_id": "1997-051ES",
        "meta_epoch": "2025-12-24T23:49:25.823136",
        "meta_mean_motion": 14.45414925,
        "meta_eccentricity": 0.00235086,
        "meta_inclination": 86.3273,
        "meta_ra_of_asc_node": 357.4897,
        "meta_arg_of_pericenter": 97.7488,
        "meta_mean_anomaly": 319.833,
        "meta_ephemeris_type": 0,
        "meta_classification_type": "U",
        "meta_norad_cat_id": 34350,
        "meta_element_set_no": 999,
        "meta_rev_at_epoch": 88470,
        "meta_bstar": 0.00034315311,
        "meta_mean_motion_dot": 1.231e-05,
        "meta_mean_motion_ddot": 0,
        "tle_line1": "1 34350U 97051ES  25358.99265999  .00001231  00000+0  34315-3 0  9993",
        "tle_line2": "2 34350  86.3273 357.4897 0023508  97.7488 319.8330 14.45414925884703"
      },
      "geometry": {
        "type": "Point",
        "coordinates": [
          175.48272600208026,
          24.77220976235128
        ]
      }
    }
  ]
}